[
  {
    "COMMENT": "GENERATED VIA SPACETRACK.ORG API",
    "ORIGINATOR": "18 SPCS",
    "NORAD_CAT_ID": "20436",
    "OBJECT_NAME": "SPOT 2",
    "OBJECT_TYPE": "PAYLOAD",
    "CLASSIFICATION_TYPE": "U",
    "INTLDES": "90005A",
    "EPOCH": "2023-06-17 11:15:31",
    "EPOCH_MICROSECONDS": "587840",
    "MEAN_MOTION": "14.68107853",
    "ECCENTRICITY": "0.0140148",
    "INCLINATION": "98.6629",
    "RA_OF_ASC_NODE": "239.785",
    "ARG_OF_PERICENTER": "282.9628",
    "MEAN_ANOMALY": "75.5957",
    "EPHEMERIS_TYPE": "0",
    "ELEMENT_SET_NO": "999",
    "REV_AT_EPOCH": "75421",
    "BSTAR": "0.00015589",
    "MEAN_MOTION_DOT": "0.00000972",
    "MEAN_MOTION_DDOT": "0",
    "FILE": "3935591",
    "TLE_LINE0": "0 SPOT 2",
    "TLE_LINE1": "1 20436U 90005A   23168.46911560  .00000972  00000-0  15589-3 0  9990",
    "TLE_LINE2": "2 20436  98.6629 239.7850 0140148 282.9628  75.5957 14.68107853754216",
    "OBJECT_ID": "1990-005A",
    "OBJECT_NUMBER": "20436",
    "SEMIMAJOR_AXIS": "7045.252",
    "PERIOD": "98.085",
    "APOGEE": "765.855",
    "PERIGEE": "568.379",
    "DECAYED": "0"
  },
  {
    "COMMENT": "GENERATED VIA SPACETRACK.ORG API",
    "ORIGINATOR": "18 SPCS",
    "NORAD_CAT_ID": "20436",
    "OBJECT_NAME": "SPOT 2",
    "OBJECT_TYPE": "PAYLOAD",
    "CLASSIFICATION_TYPE": "U",
    "INTLDES": "90005A",
    "EPOCH": "2023-06-17 11:15:31",
    "EPOCH_MICROSECONDS": "587840",
    "MEAN_MOTION": "14.68107853",
    "ECCENTRICITY": "0.0140148",
    "INCLINATION": "98.6629",
    "RA_OF_ASC_NODE": "239.785",
    "ARG_OF_PERICENTER": "282.9628",
    "MEAN_ANOMALY": "75.5957",
    "EPHEMERIS_TYPE": "0",
    "ELEMENT_SET_NO": "999",
    "REV_AT_EPOCH": "75423",
    "BSTAR": "0.00015589",
    "MEAN_MOTION_DOT": "0.00000972",
    "MEAN_MOTION_DDOT": "0",
    "FILE": "3935847",
    "TLE_LINE0": "0 SPOT 2",
    "TLE_LINE1": "1 20436U 90005A   23168.46911560  .00000972  00000-0  15589-3 0  9990",
    "TLE_LINE2": "2 20436  98.6629 239.7850 0140148 282.9628  75.5957 14.68107853754238",
    "OBJECT_ID": "1990-005A",
    "OBJECT_NUMBER": "20436",
    "SEMIMAJOR_AXIS": "7045.252",
    "PERIOD": "98.085",
    "APOGEE": "765.855",
    "PERIGEE": "568.379",
    "DECAYED": "0"
  },
  {
    "COMMENT": "GENERATED VIA SPACETRACK.ORG API",
    "ORIGINATOR": "18 SPCS",
    "NORAD_CAT_ID": "20436",
    "OBJECT_NAME": "SPOT 2",
    "OBJECT_TYPE": "PAYLOAD",
    "CLASSIFICATION_TYPE": "U",
    "INTLDES": "90005A",
    "EPOCH": "2023-06-17 16:09:57",
    "EPOCH_MICROSECONDS": "326688",
    "MEAN_MOTION": "14.68108258",
    "ECCENTRICITY": "0.0140149",
    "INCLINATION": "98.6629",
    "RA_OF_ASC_NODE": "240.0015",
    "ARG_OF_PERICENTER": "282.3178",
    "MEAN_ANOMALY": "76.2366",
    "EPHEMERIS_TYPE": "0",
    "ELEMENT_SET_NO": "999",
    "REV_AT_EPOCH": "75424",
    "BSTAR": "0.00015543",
    "MEAN_MOTION_DOT": "0.00000969",
    "MEAN_MOTION_DDOT": "0",
    "FILE": "3935891",
    "TLE_LINE0": "0 SPOT 2",
    "TLE_LINE1": "1 20436U 90005A   23168.67358017  .00000969  00000-0  15543-3 0  9991",
    "TLE_LINE2": "2 20436  98.6629 240.0015 0140149 282.3178  76.2366 14.68108258754244",
    "OBJECT_ID": "1990-005A",
    "OBJECT_NUMBER": "20436",
    "SEMIMAJOR_AXIS": "7045.251",
    "PERIOD": "98.085",
    "APOGEE": "765.854",
    "PERIGEE": "568.377",
    "DECAYED": "0"
  },
  {
    "COMMENT": "GENERATED VIA SPACETRACK.ORG API",
    "ORIGINATOR": "18 SPCS",
    "NORAD_CAT_ID": "20436",
    "OBJECT_NAME": "SPOT 2",
    "OBJECT_TYPE": "PAYLOAD",
    "CLASSIFICATION_TYPE": "U",
    "INTLDES": "90005A",
    "EPOCH": "2023-06-18 05:15:05",
    "EPOCH_MICROSECONDS": "940864",
    "MEAN_MOTION": "14.68109529",
    "ECCENTRICITY": "0.0140145",
    "INCLINATION": "98.6629",
    "RA_OF_ASC_NODE": "240.5787",
    "ARG_OF_PERICENTER": "280.6005",
    "MEAN_ANOMALY": "77.944",
    "EPHEMERIS_TYPE": "0",
    "ELEMENT_SET_NO": "999",
    "REV_AT_EPOCH": "75432",
    "BSTAR": "0.00015918",
    "MEAN_MOTION_DOT": "0.00000994",
    "MEAN_MOTION_DDOT": "0",
    "FILE": "3936420",
    "TLE_LINE0": "0 SPOT 2",
    "TLE_LINE1": "1 20436U 90005A   23169.21881876  .00000994  00000-0  15918-3 0  9990",
    "TLE_LINE2": "2 20436  98.6629 240.5787 0140145 280.6005  77.9440 14.68109529754323",
    "OBJECT_ID": "1990-005A",
    "OBJECT_NUMBER": "20436",
    "SEMIMAJOR_AXIS": "7045.247",
    "PERIOD": "98.085",
    "APOGEE": "765.847",
    "PERIGEE": "568.376",
    "DECAYED": "0"
  },
  {
    "COMMENT": "GENERATED VIA SPACETRACK.ORG API",
    "ORIGINATOR": "18 SPCS",
    "NORAD_CAT_ID": "20436",
    "OBJECT_NAME": "SPOT 2",
    "OBJECT_TYPE": "PAYLOAD",
    "CLASSIFICATION_TYPE": "U",
    "INTLDES": "90005A",
    "EPOCH": "2023-06-19 02:30:57",
    "EPOCH_MICROSECONDS": "399264",
    "MEAN_MOTION": "14.68111495",
    "ECCENTRICITY": "0.0140135",
    "INCLINATION": "98.6629",
    "RA_OF_ASC_NODE": "241.5166",
    "ARG_OF_PERICENTER": "277.8126",
    "MEAN_ANOMALY": "80.7188",
    "EPHEMERIS_TYPE": "0",
    "ELEMENT_SET_NO": "999",
    "REV_AT_EPOCH": "75447",
    "BSTAR": "0.00016141",
    "MEAN_MOTION_DOT": "0.00001009",
    "MEAN_MOTION_DDOT": "0",
    "FILE": "3936961",
    "TLE_LINE0": "0 SPOT 2",
    "TLE_LINE1": "1 20436U 90005A   23170.10483101  .00001009  00000-0  16141-3 0  9996",
    "TLE_LINE2": "2 20436  98.6629 241.5166 0140135 277.8126  80.7188 14.68111495754478",
    "OBJECT_ID": "1990-005A",
    "OBJECT_NUMBER": "20436",
    "SEMIMAJOR_AXIS": "7045.240",
    "PERIOD": "98.085",
    "APOGEE": "765.834",
    "PERIGEE": "568.377",
    "DECAYED": "0"
  },
  {
    "COMMENT": "GENERATED VIA SPACETRACK.ORG API",
    "ORIGINATOR": "18 SPCS",
    "NORAD_CAT_ID": "20436",
    "OBJECT_NAME": "SPOT 2",
    "OBJECT_TYPE": "PAYLOAD",
    "CLASSIFICATION_TYPE": "U",
    "INTLDES": "90005A",
    "EPOCH": "2023-06-19 10:41:40",
    "EPOCH_MICROSECONDS": "259040",
    "MEAN_MOTION": "14.68112162",
    "ECCENTRICITY": "0.0140132",
    "INCLINATION": "98.6629",
    "RA_OF_ASC_NODE": "241.8774",
    "ARG_OF_PERICENTER": "276.7411",
    "MEAN_ANOMALY": "81.7862",
    "EPHEMERIS_TYPE": "0",
    "ELEMENT_SET_NO": "999",
    "REV_AT_EPOCH": "75450",
    "BSTAR": "0.00015938",
    "MEAN_MOTION_DOT": "0.00000996",
    "MEAN_MOTION_DDOT": "0",
    "FILE": "3937338",
    "TLE_LINE0": "0 SPOT 2",
    "TLE_LINE1": "1 20436U 90005A   23170.44560485  .00000996  00000-0  15938-3 0  9991",
    "TLE_LINE2": "2 20436  98.6629 241.8774 0140132 276.7411  81.7862 14.68112162754504",
    "OBJECT_ID": "1990-005A",
    "OBJECT_NUMBER": "20436",
    "SEMIMAJOR_AXIS": "7045.238",
    "PERIOD": "98.085",
    "APOGEE": "765.830",
    "PERIGEE": "568.377",
    "DECAYED": "0"
  },
  {
    "COMMENT": "GENERATED VIA SPACETRACK.ORG API",
    "ORIGINATOR": "18 SPCS",
    "NORAD_CAT_ID": "20436",
    "OBJECT_NAME": "SPOT 2",
    "OBJECT_TYPE": "PAYLOAD",
    "CLASSIFICATION_TYPE": "U",
    "INTLDES": "90005A",
    "EPOCH": "2023-06-20 04:41:14",
    "EPOCH_MICROSECONDS": "510112",
    "MEAN_MOTION": "14.68113972",
    "ECCENTRICITY": "0.0140123",
    "INCLINATION": "98.6628",
    "RA_OF_ASC_NODE": "242.671",
    "ARG_OF_PERICENTER": "274.3826",
    "MEAN_ANOMALY": "84.1378",
    "EPHEMERIS_TYPE": "0",
    "ELEMENT_SET_NO": "999",
    "REV_AT_EPOCH": "75463",
    "BSTAR": "0.00016166",
    "MEAN_MOTION_DOT": "0.00001011",
    "MEAN_MOTION_DDOT": "0",
    "FILE": "3937788",
    "TLE_LINE0": "0 SPOT 2",
    "TLE_LINE1": "1 20436U 90005A   23171.19530683  .00001011  00000-0  16166-3 0  9994",
    "TLE_LINE2": "2 20436  98.6628 242.6710 0140123 274.3826  84.1378 14.68113972754639",
    "OBJECT_ID": "1990-005A",
    "OBJECT_NUMBER": "20436",
    "SEMIMAJOR_AXIS": "7045.232",
    "PERIOD": "98.085",
    "APOGEE": "765.817",
    "PERIGEE": "568.378",
    "DECAYED": "0"
  },
  {
    "COMMENT": "GENERATED VIA SPACETRACK.ORG API",
    "ORIGINATOR": "18 SPCS",
    "NORAD_CAT_ID": "20436",
    "OBJECT_NAME": "SPOT 2",
    "OBJECT_TYPE": "PAYLOAD",
    "CLASSIFICATION_TYPE": "U",
    "INTLDES": "90005A",
    "EPOCH": "2023-06-20 04:41:14",
    "EPOCH_MICROSECONDS": "510112",
    "MEAN_MOTION": "14.68113972",
    "ECCENTRICITY": "0.0140123",
    "INCLINATION": "98.6628",
    "RA_OF_ASC_NODE": "242.671",
    "ARG_OF_PERICENTER": "274.3826",
    "MEAN_ANOMALY": "84.1378",
    "EPHEMERIS_TYPE": "0",
    "ELEMENT_SET_NO": "999",
    "REV_AT_EPOCH": "75461",
    "BSTAR": "0.00016166",
    "MEAN_MOTION_DOT": "0.00001011",
    "MEAN_MOTION_DDOT": "0",
    "FILE": "3938135",
    "TLE_LINE0": "0 SPOT 2",
    "TLE_LINE1": "1 20436U 90005A   23171.19530683  .00001011  00000-0  16166-3 0  9994",
    "TLE_LINE2": "2 20436  98.6628 242.6710 0140123 274.3826  84.1378 14.68113972754617",
    "OBJECT_ID": "1990-005A",
    "OBJECT_NUMBER": "20436",
    "SEMIMAJOR_AXIS": "7045.232",
    "PERIOD": "98.085",
    "APOGEE": "765.817",
    "PERIGEE": "568.378",
    "DECAYED": "0"
  },
  {
    "COMMENT": "GENERATED VIA SPACETRACK.ORG API",
    "ORIGINATOR": "18 SPCS",
    "NORAD_CAT_ID": "20436",
    "OBJECT_NAME": "SPOT 2",
    "OBJECT_TYPE": "PAYLOAD",
    "CLASSIFICATION_TYPE": "U",
    "INTLDES": "90005A",
    "EPOCH": "2023-06-20 19:24:31",
    "EPOCH_MICROSECONDS": "607424",
    "MEAN_MOTION": "14.68115348",
    "ECCENTRICITY": "0.014012",
    "INCLINATION": "98.6628",
    "RA_OF_ASC_NODE": "243.3204",
    "ARG_OF_PERICENTER": "272.4519",
    "MEAN_ANOMALY": "86.0649",
    "EPHEMERIS_TYPE": "0",
    "ELEMENT_SET_NO": "999",
    "REV_AT_EPOCH": "75470",
    "BSTAR": "0.00016124",
    "MEAN_MOTION_DOT": "0.00001008",
    "MEAN_MOTION_DDOT": "0",
    "FILE": "3938544",
    "TLE_LINE0": "0 SPOT 2",
    "TLE_LINE1": "1 20436U 90005A   23171.80869916  .00001008  00000-0  16124-3 0  9996",
    "TLE_LINE2": "2 20436  98.6628 243.3204 0140120 272.4519  86.0649 14.68115348754709",
    "OBJECT_ID": "1990-005A",
    "OBJECT_NUMBER": "20436",
    "SEMIMAJOR_AXIS": "7045.228",
    "PERIOD": "98.085",
    "APOGEE": "765.811",
    "PERIGEE": "568.375",
    "DECAYED": "0"
  }
]